{"success":true,"message":"Features fetched successfully!","geometries":{"type":"FeatureCollection","features":[{"type":"Feature","id":"node/1241687198","properties":{"type":"node","id":1241687198,"tags":{"amenity":"pharmacy"},"relations":[],"meta":{}},"geometry":{"type":"Point","coordinates":[106.9256845,47.9043182]}},{"type":"Feature","id":"node/1245746811","properties":{"type":"node","id":1245746811,"tags":{"amenity":"pharmacy"},"relations":[],"meta":{}},"geometry":{"type":"Point","coordinates":[106.8847517,47.9097642]}},{"type":"Feature","id":"node/1245746834","properties":{"type":"node","id":1245746834,"tags":{"amenity":"pharmacy"},"relations":[],"meta":{}},"geometry":{"type":"Point","coordinates":[106.9247776,47.9042831]}},{"type":"Feature","id":"node/1247498286","properties":{"type":"node","id":1247498286,"tags":{"amenity":"pharmacy"},"relations":[],"meta":{}},"geometry":{"type":"Point","coordinates":[106.9092182,47.9021291]}},{"type":"Feature","id":"node/1251077840","properties":{"type":"node","id":1251077840,"tags":{"amenity":"pharmacy","name":"Эмийн сан"},"relations":[],"meta":{}},"geometry":{"type":"Point","coordinates":[106.9054035,47.9118602]}},{"type":"Feature","id":"node/1273185106","properties":{"type":"node","id":1273185106,"tags":{"amenity":"pharmacy","name":"Эмийн Сан"},"relations":[],"meta":{}},"geometry":{"type":"Point","coordinates":[106.8993603,47.8996257]}},{"type":"Feature","id":"node/1338433728","properties":{"type":"node","id":1338433728,"tags":{"amenity":"pharmacy","name":"Эмин Сан"},"relations":[],"meta":{}},"geometry":{"type":"Point","coordinates":[106.9179285,47.901083]}},{"type":"Feature","id":"node/1967140755","properties":{"type":"node","id":1967140755,"tags":{"amenity":"pharmacy","name":"Эмийн сан","name:en":"Pharmacy","name:mn":"Эмийн сан"},"relations":[],"meta":{}},"geometry":{"type":"Point","coordinates":[106.9183287,47.9007014]}},{"type":"Feature","id":"node/2268076503","properties":{"type":"node","id":2268076503,"tags":{"amenity":"pharmacy","name":"МОНОС"},"relations":[],"meta":{}},"geometry":{"type":"Point","coordinates":[106.9349341,47.9047302]}},{"type":"Feature","id":"node/2284097713","properties":{"type":"node","id":2284097713,"tags":{"amenity":"pharmacy","name":"Амар Агент Эмийн Сан"},"relations":[],"meta":{}},"geometry":{"type":"Point","coordinates":[106.8332617,47.9151608]}},{"type":"Feature","id":"node/2293181765","properties":{"type":"node","id":2293181765,"tags":{"amenity":"pharmacy","healthcare":"pharmacy","name":"этүгэн их сургууль","name:en":"Pharmacy"},"relations":[],"meta":{}},"geometry":{"type":"Point","coordinates":[106.9287062,47.9211113]}},{"type":"Feature","id":"node/2293719530","properties":{"type":"node","id":2293719530,"tags":{"addr:street":"Тобангийн Гудамж","amenity":"pharmacy","name":"Тавин Ус эмийн сан 19-р хороолол салбар","name:en":"Tavin Us pharmacy 19th district branch","opening_hours":"24/7"},"relations":[],"meta":{}},"geometry":{"type":"Point","coordinates":[106.9003033,47.9002516]}},{"type":"Feature","id":"node/2317165243","properties":{"type":"node","id":2317165243,"tags":{"amenity":"pharmacy","name":"Түвшин тун"},"relations":[],"meta":{}},"geometry":{"type":"Point","coordinates":[107.2528959,47.7693452]}},{"type":"Feature","id":"node/2322020743","properties":{"type":"node","id":2322020743,"tags":{"amenity":"pharmacy"},"relations":[],"meta":{}},"geometry":{"type":"Point","coordinates":[106.8670378,47.914656]}},{"type":"Feature","id":"node/2389089556","properties":{"type":"node","id":2389089556,"tags":{"amenity":"pharmacy","name":"Монос"},"relations":[],"meta":{}},"geometry":{"type":"Point","coordinates":[106.7844974,47.9067454]}},{"type":"Feature","id":"node/2442482326","properties":{"type":"node","id":2442482326,"tags":{"amenity":"pharmacy","name":"Эмийн сан","toilets:wheelchair":"no","wheelchair":"no","wheelchair:description":"emiin san"},"relations":[],"meta":{}},"geometry":{"type":"Point","coordinates":[106.9087354,47.9119048]}},{"type":"Feature","id":"node/2511108898","properties":{"type":"node","id":2511108898,"tags":{"amenity":"pharmacy","dispensing":"no","healthcare":"pharmacy","name":"Эмийн Cан","name:en":"Pharmacy"},"relations":[],"meta":{}},"geometry":{"type":"Point","coordinates":[106.918194,47.9248731]}},{"type":"Feature","id":"node/2511182248","properties":{"type":"node","id":2511182248,"tags":{"amenity":"pharmacy","dispensing":"yes","healthcare":"pharmacy","name":"Дарви"},"relations":[],"meta":{}},"geometry":{"type":"Point","coordinates":[106.9211707,47.9269054]}},{"type":"Feature","id":"node/2520523199","properties":{"type":"node","id":2520523199,"tags":{"amenity":"pharmacy","dispensing":"yes","healthcare":"pharmacy"},"relations":[],"meta":{}},"geometry":{"type":"Point","coordinates":[106.9204159,47.9263135]}},{"type":"Feature","id":"node/2520627436","properties":{"type":"node","id":2520627436,"tags":{"amenity":"pharmacy","dispensing":"no","healthcare":"pharmacy","name":"Эмийн сан"},"relations":[],"meta":{}},"geometry":{"type":"Point","coordinates":[106.9230012,47.9199546]}},{"type":"Feature","id":"node/2527571263","properties":{"type":"node","id":2527571263,"tags":{"amenity":"pharmacy","dispensing":"no"},"relations":[],"meta":{}},"geometry":{"type":"Point","coordinates":[106.9270572,47.9263673]}},{"type":"Feature","id":"node/2528795457","properties":{"type":"node","id":2528795457,"tags":{"amenity":"pharmacy","dispensing":"no","healthcare":"pharmacy","name":"Эмийн Сан"},"relations":[],"meta":{}},"geometry":{"type":"Point","coordinates":[106.9183781,47.9265058]}},{"type":"Feature","id":"node/2614472076","properties":{"type":"node","id":2614472076,"tags":{"amenity":"pharmacy"},"relations":[],"meta":{}},"geometry":{"type":"Point","coordinates":[106.9056204,47.9368411]}},{"type":"Feature","id":"node/2615905858","properties":{"type":"node","id":2615905858,"tags":{"amenity":"pharmacy"},"relations":[],"meta":{}},"geometry":{"type":"Point","coordinates":[106.9059485,47.9334862]}},{"type":"Feature","id":"node/2621090963","properties":{"type":"node","id":2621090963,"tags":{"amenity":"pharmacy"},"relations":[],"meta":{}},"geometry":{"type":"Point","coordinates":[106.9424313,47.9164497]}},{"type":"Feature","id":"node/3673050826","properties":{"type":"node","id":3673050826,"tags":{"amenity":"pharmacy","name":"Эмийн сан","name:en":"Pharmacy","wheelchair":"no"},"relations":[],"meta":{}},"geometry":{"type":"Point","coordinates":[106.907131,47.919942]}},{"type":"Feature","id":"node/3674188626","properties":{"type":"node","id":3674188626,"tags":{"amenity":"pharmacy","name":"Чин Ван Эмийн сан","opening_hours":"Mo-Su 08:00-22:00"},"relations":[],"meta":{}},"geometry":{"type":"Point","coordinates":[106.9106123,47.9197688]}},{"type":"Feature","id":"node/3674536326","properties":{"type":"node","id":3674536326,"tags":{"amenity":"pharmacy","healthcare":"pharmacy","name":"Эмин сан"},"relations":[],"meta":{}},"geometry":{"type":"Point","coordinates":[106.9171695,47.9222763]}},{"type":"Feature","id":"node/3886060501","properties":{"type":"node","id":3886060501,"tags":{"amenity":"pharmacy","name":"Эмийн сан","wheelchair":"no"},"relations":[],"meta":{}},"geometry":{"type":"Point","coordinates":[106.9090812,47.9116103]}},{"type":"Feature","id":"node/3891944459","properties":{"type":"node","id":3891944459,"tags":{"amenity":"pharmacy"},"relations":[],"meta":{}},"geometry":{"type":"Point","coordinates":[106.911258,47.9397839]}},{"type":"Feature","id":"node/3891960765","properties":{"type":"node","id":3891960765,"tags":{"amenity":"pharmacy","name":"Агар Эмийн Сан"},"relations":[],"meta":{}},"geometry":{"type":"Point","coordinates":[106.8668827,47.9143121]}},{"type":"Feature","id":"node/3892299570","properties":{"type":"node","id":3892299570,"tags":{"amenity":"pharmacy","name":"Монос эмийн сан"},"relations":[],"meta":{}},"geometry":{"type":"Point","coordinates":[106.9004701,47.9188235]}},{"type":"Feature","id":"node/3892306375","properties":{"type":"node","id":3892306375,"tags":{"amenity":"pharmacy","name":"Монгол элимпекс Бөмбөгөр"},"relations":[],"meta":{}},"geometry":{"type":"Point","coordinates":[106.9027922,47.9193821]}},{"type":"Feature","id":"node/3892306376","properties":{"type":"node","id":3892306376,"tags":{"amenity":"pharmacy","name":"Монгол элимпекс парм-1"},"relations":[],"meta":{}},"geometry":{"type":"Point","coordinates":[106.9030686,47.9214582]}},{"type":"Feature","id":"node/3893410061","properties":{"type":"node","id":3893410061,"tags":{"amenity":"pharmacy","name":"Мөнхийн тун эмийн сан"},"relations":[],"meta":{}},"geometry":{"type":"Point","coordinates":[106.9476043,47.9216166]}},{"type":"Feature","id":"node/3893519172","properties":{"type":"node","id":3893519172,"tags":{"amenity":"pharmacy","name":"24н цагийн эмийн сан"},"relations":[],"meta":{}},"geometry":{"type":"Point","coordinates":[106.8669342,47.9147581]}},{"type":"Feature","id":"node/3894621032","properties":{"type":"node","id":3894621032,"tags":{"amenity":"pharmacy","brand":"Farmacity","brand:wikidata":"Q5856076","brand:wikipedia":"es:Farmacity","healthcare":"pharmacy","name":"Farmacity"},"relations":[],"meta":{}},"geometry":{"type":"Point","coordinates":[106.9134082,47.9129874]}},{"type":"Feature","id":"node/3895021481","properties":{"type":"node","id":3895021481,"tags":{"amenity":"pharmacy","healthcare":"pharmacy"},"relations":[],"meta":{}},"geometry":{"type":"Point","coordinates":[106.9146331,47.925623]}},{"type":"Feature","id":"node/3895022914","properties":{"type":"node","id":3895022914,"tags":{"amenity":"pharmacy","healthcare":"pharmacy","name":"\"Отэсо\""},"relations":[],"meta":{}},"geometry":{"type":"Point","coordinates":[106.9146291,47.9256346]}},{"type":"Feature","id":"node/3895026124","properties":{"type":"node","id":3895026124,"tags":{"amenity":"pharmacy","healthcare":"pharmacy","name":"Монос эмийн сан"},"relations":[],"meta":{}},"geometry":{"type":"Point","coordinates":[106.9149882,47.9264608]}},{"type":"Feature","id":"node/3895098431","properties":{"type":"node","id":3895098431,"tags":{"amenity":"pharmacy"},"relations":[],"meta":{}},"geometry":{"type":"Point","coordinates":[106.9548672,47.9167039]}},{"type":"Feature","id":"node/3895134911","properties":{"type":"node","id":3895134911,"tags":{"amenity":"pharmacy","healthcare":"pharmacy"},"relations":[],"meta":{}},"geometry":{"type":"Point","coordinates":[106.9219468,47.9213952]}},{"type":"Feature","id":"node/3896022601","properties":{"type":"node","id":3896022601,"tags":{"amenity":"pharmacy","healthcare":"pharmacy","name":"Эмийн сан","toilets:wheelchair":"no","wheelchair":"limited"},"relations":[],"meta":{}},"geometry":{"type":"Point","coordinates":[106.9192691,47.9247425]}},{"type":"Feature","id":"node/3896158883","properties":{"type":"node","id":3896158883,"tags":{"amenity":"pharmacy","name":"Эмийн сан"},"relations":[],"meta":{}},"geometry":{"type":"Point","coordinates":[106.9056311,47.9126871]}},{"type":"Feature","id":"node/3896158887","properties":{"type":"node","id":3896158887,"tags":{"amenity":"pharmacy","name":"Эмийн сан"},"relations":[],"meta":{}},"geometry":{"type":"Point","coordinates":[106.9025304,47.912676]}},{"type":"Feature","id":"node/3896218820","properties":{"type":"node","id":3896218820,"tags":{"amenity":"pharmacy","healthcare":"pharmacy","name":"Эмийн сан"},"relations":[],"meta":{}},"geometry":{"type":"Point","coordinates":[106.9267471,47.9269649]}},{"type":"Feature","id":"node/3896557283","properties":{"type":"node","id":3896557283,"tags":{"amenity":"pharmacy","name":"Гүн тулга","name:en":"Gun tulga","operator":"эмийн сан"},"relations":[],"meta":{}},"geometry":{"type":"Point","coordinates":[106.9643827,47.918341]}},{"type":"Feature","id":"node/3896635028","properties":{"type":"node","id":3896635028,"tags":{"amenity":"pharmacy","name":"Тавин ус эмийн сан","name:en":"Tavin-Us pharmacy"},"relations":[],"meta":{}},"geometry":{"type":"Point","coordinates":[106.9500615,47.9180641]}},{"type":"Feature","id":"node/3896750805","properties":{"type":"node","id":3896750805,"tags":{"amenity":"pharmacy","name":"Эмийн сан"},"relations":[],"meta":{}},"geometry":{"type":"Point","coordinates":[106.9066058,47.9183017]}},{"type":"Feature","id":"node/3898544288","properties":{"type":"node","id":3898544288,"tags":{"amenity":"pharmacy","name":"Эмийн Сан"},"relations":[],"meta":{}},"geometry":{"type":"Point","coordinates":[106.8331699,47.911669]}},{"type":"Feature","id":"node/3898583651","properties":{"type":"node","id":3898583651,"tags":{"amenity":"pharmacy"},"relations":[],"meta":{}},"geometry":{"type":"Point","coordinates":[106.8382448,47.9153897]}},{"type":"Feature","id":"node/3899315952","properties":{"type":"node","id":3899315952,"tags":{"amenity":"pharmacy","brand":"Farmacity","brand:wikidata":"Q5856076","brand:wikipedia":"es:Farmacity","healthcare":"pharmacy","name":"Farmacity","opening_hours":"09:00-22:00"},"relations":[],"meta":{}},"geometry":{"type":"Point","coordinates":[106.9088421,47.9150682]}},{"type":"Feature","id":"node/3901117228","properties":{"type":"node","id":3901117228,"tags":{"amenity":"pharmacy"},"relations":[],"meta":{}},"geometry":{"type":"Point","coordinates":[106.9414672,47.9032121]}},{"type":"Feature","id":"node/3901154480","properties":{"type":"node","id":3901154480,"tags":{"amenity":"pharmacy","name":"Амар агент эмийн сан"},"relations":[],"meta":{}},"geometry":{"type":"Point","coordinates":[106.9643673,47.9236992]}},{"type":"Feature","id":"node/3901544002","properties":{"type":"node","id":3901544002,"tags":{"amenity":"pharmacy","name":"Эмийн сан"},"relations":[],"meta":{}},"geometry":{"type":"Point","coordinates":[107.0020668,47.9123374]}},{"type":"Feature","id":"node/3901559181","properties":{"type":"node","id":3901559181,"tags":{"amenity":"pharmacy","name":"эмийн сан"},"relations":[],"meta":{}},"geometry":{"type":"Point","coordinates":[106.8645302,47.9185232]}},{"type":"Feature","id":"node/3901572369","properties":{"type":"node","id":3901572369,"tags":{"amenity":"pharmacy","operator":"Хүрмэн ххк"},"relations":[],"meta":{}},"geometry":{"type":"Point","coordinates":[106.9409355,47.9243116]}},{"type":"Feature","id":"node/3901572372","properties":{"type":"node","id":3901572372,"tags":{"amenity":"pharmacy","healthcare":"pharmacy","name":"Уламжлалт эм зүй эмийн сан"},"relations":[],"meta":{}},"geometry":{"type":"Point","coordinates":[106.9406351,47.9243511]}},{"type":"Feature","id":"node/3902482539","properties":{"type":"node","id":3902482539,"tags":{"amenity":"pharmacy","name":"малын эмийн сан"},"relations":[],"meta":{}},"geometry":{"type":"Point","coordinates":[106.8212849,47.9112098]}},{"type":"Feature","id":"node/3902493404","properties":{"type":"node","id":3902493404,"tags":{"amenity":"pharmacy","name":"Эмийн сан"},"relations":[],"meta":{}},"geometry":{"type":"Point","coordinates":[106.8834785,47.9123978]}},{"type":"Feature","id":"node/3902493772","properties":{"type":"node","id":3902493772,"tags":{"amenity":"pharmacy","name":"Эмийн сан"},"relations":[],"meta":{}},"geometry":{"type":"Point","coordinates":[106.8837666,47.9132037]}},{"type":"Feature","id":"node/3902494278","properties":{"type":"node","id":3902494278,"tags":{"amenity":"pharmacy","name":"Эмийн сан"},"relations":[],"meta":{}},"geometry":{"type":"Point","coordinates":[106.8831831,47.9127676]}},{"type":"Feature","id":"node/3902497039","properties":{"type":"node","id":3902497039,"tags":{"amenity":"pharmacy","name":"Эмийн сан"},"relations":[],"meta":{}},"geometry":{"type":"Point","coordinates":[106.8191792,47.8707377]}},{"type":"Feature","id":"node/3904328240","properties":{"type":"node","id":3904328240,"tags":{"amenity":"pharmacy","healthcare":"pharmacy","name":"эмийн сан"},"relations":[],"meta":{}},"geometry":{"type":"Point","coordinates":[106.9111105,47.9231048]}},{"type":"Feature","id":"node/3904328242","properties":{"type":"node","id":3904328242,"tags":{"amenity":"pharmacy","healthcare":"pharmacy","name":"Армон эмийн сан"},"relations":[],"meta":{}},"geometry":{"type":"Point","coordinates":[106.9111369,47.9229931]}},{"type":"Feature","id":"node/3904412707","properties":{"type":"node","id":3904412707,"tags":{"amenity":"pharmacy","healthcare":"pharmacy","name":"Monfa эмийн сан 24"},"relations":[],"meta":{}},"geometry":{"type":"Point","coordinates":[106.9105274,47.9227501]}},{"type":"Feature","id":"node/3904457789","properties":{"type":"node","id":3904457789,"tags":{"amenity":"pharmacy","healthcare":"pharmacy","name":"Шүүдэр үсчин маникюр","shop":"hairdresser"},"relations":[],"meta":{}},"geometry":{"type":"Point","coordinates":[106.9106693,47.9238865]}},{"type":"Feature","id":"node/3904554271","properties":{"type":"node","id":3904554271,"tags":{"amenity":"pharmacy","healthcare":"pharmacy"},"relations":[],"meta":{}},"geometry":{"type":"Point","coordinates":[106.9101782,47.9264845]}},{"type":"Feature","id":"node/3910042617","properties":{"type":"node","id":3910042617,"tags":{"amenity":"pharmacy","dispensing":"yes","healthcare":"pharmacy"},"relations":[],"meta":{}},"geometry":{"type":"Point","coordinates":[106.8959515,47.9000603]}},{"type":"Feature","id":"node/3910440577","properties":{"type":"node","id":3910440577,"tags":{"amenity":"pharmacy","name":"Эмийн сан"},"relations":[],"meta":{}},"geometry":{"type":"Point","coordinates":[106.8975354,47.948524]}},{"type":"Feature","id":"node/3910446132","properties":{"type":"node","id":3910446132,"tags":{"amenity":"pharmacy","name":"Эмийн сан"},"relations":[],"meta":{}},"geometry":{"type":"Point","coordinates":[106.9101295,47.9382716]}},{"type":"Feature","id":"node/3910588026","properties":{"type":"node","id":3910588026,"tags":{"addr:city":"ulaanbaatar","addr:street":"Залуучуудын өргөн чөлөө","amenity":"pharmacy","drive_through":"no","healthcare":"pharmacy","name":"Гуталчин"},"relations":[],"meta":{}},"geometry":{"type":"Point","coordinates":[106.9199603,47.9225086]}},{"type":"Feature","id":"node/3912017060","properties":{"type":"node","id":3912017060,"tags":{"amenity":"pharmacy","name":"Эмийн сан"},"relations":[],"meta":{}},"geometry":{"type":"Point","coordinates":[107.0372965,47.9130331]}},{"type":"Feature","id":"node/3912158746","properties":{"type":"node","id":3912158746,"tags":{"addr:city":"Улаанбаатар (Ulaanbaatar)","addr:street":"Токиогийн гудамж","amenity":"pharmacy","healthcare":"pharmacy","name":"Баянбүрэм эмийн сан","toilets:wheelchair":"no","wheelchair":"no"},"relations":[],"meta":{}},"geometry":{"type":"Point","coordinates":[106.9349804,47.9194655]}},{"type":"Feature","id":"node/3912169922","properties":{"type":"node","id":3912169922,"tags":{"amenity":"pharmacy","name":"Монос эмийн сан"},"relations":[],"meta":{}},"geometry":{"type":"Point","coordinates":[106.9233566,47.9292065]}},{"type":"Feature","id":"node/3912590034","properties":{"type":"node","id":3912590034,"tags":{"amenity":"pharmacy","name":"Хүрмэн эмийн сан"},"relations":[],"meta":{}},"geometry":{"type":"Point","coordinates":[106.9329834,47.8898637]}},{"type":"Feature","id":"node/3912754499","properties":{"type":"node","id":3912754499,"tags":{"amenity":"pharmacy","name":"Эмийн сан"},"relations":[],"meta":{}},"geometry":{"type":"Point","coordinates":[106.8986628,47.9125696]}},{"type":"Feature","id":"node/3912758263","properties":{"type":"node","id":3912758263,"tags":{"amenity":"pharmacy"},"relations":[],"meta":{}},"geometry":{"type":"Point","coordinates":[106.9000548,47.9439099]}},{"type":"Feature","id":"node/3912776279","properties":{"type":"node","id":3912776279,"tags":{"amenity":"pharmacy","healthcare":"pharmacy","name":"Оргил","operator":"Эмийн сан"},"relations":[],"meta":{}},"geometry":{"type":"Point","coordinates":[106.9347634,47.9177758]}},{"type":"Feature","id":"node/3912783756","properties":{"type":"node","id":3912783756,"tags":{"amenity":"pharmacy","name":"Фантази"},"relations":[],"meta":{}},"geometry":{"type":"Point","coordinates":[106.9420291,47.9128866]}},{"type":"Feature","id":"node/3912808976","properties":{"type":"node","id":3912808976,"tags":{"amenity":"pharmacy","name":"Эмийн сан"},"relations":[],"meta":{}},"geometry":{"type":"Point","coordinates":[106.8686343,47.9220047]}},{"type":"Feature","id":"node/3912821602","properties":{"type":"node","id":3912821602,"tags":{"amenity":"pharmacy"},"relations":[],"meta":{}},"geometry":{"type":"Point","coordinates":[106.9413061,47.9248643]}},{"type":"Feature","id":"node/3912862729","properties":{"type":"node","id":3912862729,"tags":{"amenity":"pharmacy","name":"Эмийн сан"},"relations":[],"meta":{}},"geometry":{"type":"Point","coordinates":[106.9828777,47.9234397]}},{"type":"Feature","id":"node/3912943771","properties":{"type":"node","id":3912943771,"tags":{"amenity":"pharmacy"},"relations":[],"meta":{}},"geometry":{"type":"Point","coordinates":[106.9414329,47.9233879]}},{"type":"Feature","id":"node/3913033858","properties":{"type":"node","id":3913033858,"tags":{"amenity":"pharmacy","name":"Хүрмэн","name:en":"Khurmen pharmacy"},"relations":[],"meta":{}},"geometry":{"type":"Point","coordinates":[106.9453176,47.9182491]}},{"type":"Feature","id":"node/3913093459","properties":{"type":"node","id":3913093459,"tags":{"amenity":"pharmacy","name":"Хүрмэн"},"relations":[],"meta":{}},"geometry":{"type":"Point","coordinates":[106.8796863,47.912869]}},{"type":"Feature","id":"node/3913239352","properties":{"type":"node","id":3913239352,"tags":{"amenity":"pharmacy"},"relations":[],"meta":{}},"geometry":{"type":"Point","coordinates":[106.9199882,47.9007312]}},{"type":"Feature","id":"node/3913351348","properties":{"type":"node","id":3913351348,"tags":{"amenity":"pharmacy","name":"Хүрмэн Эмийн сан"},"relations":[],"meta":{}},"geometry":{"type":"Point","coordinates":[106.8901085,47.9141298]}},{"type":"Feature","id":"node/3913355095","properties":{"type":"node","id":3913355095,"tags":{"amenity":"pharmacy","name":"Чаг эмийн сан"},"relations":[],"meta":{}},"geometry":{"type":"Point","coordinates":[106.8904484,47.9136482]}},{"type":"Feature","id":"node/3913355445","properties":{"type":"node","id":3913355445,"tags":{"amenity":"pharmacy","name":"Монос эмийн сан","wheelchair":"no"},"relations":[],"meta":{}},"geometry":{"type":"Point","coordinates":[106.8904033,47.9194401]}},{"type":"Feature","id":"node/3913491480","properties":{"type":"node","id":3913491480,"tags":{"amenity":"pharmacy","name":"Эмийн бөөний төв","toilets:wheelchair":"no","wheelchair":"limited"},"relations":[],"meta":{}},"geometry":{"type":"Point","coordinates":[106.9028192,47.9190959]}},{"type":"Feature","id":"node/3913897286","properties":{"type":"node","id":3913897286,"tags":{"addr:city":"Улаанбаатар","addr:street":"Замчдын гудамж","amenity":"pharmacy","name":"Эмийн сан"},"relations":[],"meta":{}},"geometry":{"type":"Point","coordinates":[106.8773123,47.910378]}},{"type":"Feature","id":"node/3918632517","properties":{"type":"node","id":3918632517,"tags":{"amenity":"pharmacy","healthcare":"pharmacy","name":"Эмийн сан","name:en":"Pharmacy"},"relations":[],"meta":{}},"geometry":{"type":"Point","coordinates":[106.9362642,47.9163614]}},{"type":"Feature","id":"node/3930890395","properties":{"type":"node","id":3930890395,"tags":{"amenity":"pharmacy","name":"Эмийн сан"},"relations":[],"meta":{}},"geometry":{"type":"Point","coordinates":[106.8794796,47.9225328]}},{"type":"Feature","id":"node/3931778590","properties":{"type":"node","id":3931778590,"tags":{"amenity":"pharmacy","healthcare":"pharmacy","name":"Эмийн сан","toilets:wheelchair":"no","wheelchair":"no"},"relations":[],"meta":{}},"geometry":{"type":"Point","coordinates":[106.9261336,47.9225957]}},{"type":"Feature","id":"node/4029450296","properties":{"type":"node","id":4029450296,"tags":{"amenity":"pharmacy","name":"Эмийн сан","toilets:wheelchair":"no","wheelchair":"limited"},"relations":[],"meta":{}},"geometry":{"type":"Point","coordinates":[106.896109,47.9151376]}},{"type":"Feature","id":"node/4029453476","properties":{"type":"node","id":4029453476,"tags":{"amenity":"pharmacy","name":"Монос эмийн сан","wheelchair":"no"},"relations":[],"meta":{}},"geometry":{"type":"Point","coordinates":[106.891334,47.9191278]}},{"type":"Feature","id":"node/4225579852","properties":{"type":"node","id":4225579852,"tags":{"amenity":"pharmacy","healthcare":"pharmacy","name":"Тошлой эмийн сан"},"relations":[],"meta":{}},"geometry":{"type":"Point","coordinates":[106.9203195,47.9248133]}},{"type":"Feature","id":"node/4239545192","properties":{"type":"node","id":4239545192,"tags":{"amenity":"pharmacy","name":"Оол Эм"},"relations":[],"meta":{}},"geometry":{"type":"Point","coordinates":[106.8744988,47.9246358]}},{"type":"Feature","id":"node/4239643989","properties":{"type":"node","id":4239643989,"tags":{"amenity":"pharmacy"},"relations":[],"meta":{}},"geometry":{"type":"Point","coordinates":[106.8741705,47.9246079]}},{"type":"Feature","id":"node/4288096793","properties":{"type":"node","id":4288096793,"tags":{"amenity":"pharmacy","name":"Khurmen","name:mn":"Хүрмэн"},"relations":[],"meta":{}},"geometry":{"type":"Point","coordinates":[106.9101523,47.8815067]}},{"type":"Feature","id":"node/4299256994","properties":{"type":"node","id":4299256994,"tags":{"amenity":"pharmacy","name":"Эмийн сан","name:en":"Pharmacy"},"relations":[],"meta":{}},"geometry":{"type":"Point","coordinates":[106.9187485,47.9003341]}},{"type":"Feature","id":"node/4312764097","properties":{"type":"node","id":4312764097,"tags":{"amenity":"pharmacy","name":"Buyant-Uhaa 2 horoolol","name:mn":"Буянт-Ухаа 2 хороолол"},"relations":[],"meta":{}},"geometry":{"type":"Point","coordinates":[106.7886539,47.8449488]}},{"type":"Feature","id":"node/4415879792","properties":{"type":"node","id":4415879792,"tags":{"amenity":"pharmacy","name":"Эмийн сан","name:en":"Pharmacy","name:mn":"Догдлол","name:ru":"Аптек"},"relations":[],"meta":{}},"geometry":{"type":"Point","coordinates":[106.8890305,47.8966114]}},{"type":"Feature","id":"node/4453381993","properties":{"type":"node","id":4453381993,"tags":{"amenity":"pharmacy","healthcare":"pharmacy","name":"Монос-13","name:en":"monos-13","name:mn":"Монос-13"},"relations":[],"meta":{}},"geometry":{"type":"Point","coordinates":[106.9374156,47.9192987]}},{"type":"Feature","id":"node/4548174007","properties":{"type":"node","id":4548174007,"tags":{"amenity":"pharmacy","name":"ОюуДент"},"relations":[],"meta":{}},"geometry":{"type":"Point","coordinates":[106.8774405,47.9180721]}},{"type":"Feature","id":"node/4554907991","properties":{"type":"node","id":4554907991,"tags":{"amenity":"pharmacy","name":"Ан аньст","name:mn":"Ан аньст","operator":"Болдбаатар","phone":"96023876"},"relations":[],"meta":{}},"geometry":{"type":"Point","coordinates":[106.8251425,47.8700678]}},{"type":"Feature","id":"node/4554907992","properties":{"type":"node","id":4554907992,"tags":{"amenity":"pharmacy","name":"Ган удам","name:mn":"Ган удам","operator":"Байгалмаа","phone":"99142569"},"relations":[],"meta":{}},"geometry":{"type":"Point","coordinates":[106.8238934,47.8712603]}},{"type":"Feature","id":"node/4554916090","properties":{"type":"node","id":4554916090,"tags":{"amenity":"pharmacy","name":"Их хушт","name:mn":"Их хушт","operator":"Даваадорж","phone":"9710526"},"relations":[],"meta":{}},"geometry":{"type":"Point","coordinates":[106.8068511,47.8674753]}},{"type":"Feature","id":"node/4554916091","properties":{"type":"node","id":4554916091,"tags":{"amenity":"pharmacy","name":"Буйлан нуур","name:mn":"Буйлан нуур","operator":"Саран","phone":"96052151"},"relations":[],"meta":{}},"geometry":{"type":"Point","coordinates":[106.8065692,47.8684667]}},{"type":"Feature","id":"node/4554929590","properties":{"type":"node","id":4554929590,"tags":{"amenity":"pharmacy","name":"Их халзан бүргэдэй","name:mn":"Их халзан бүргэдэй","operator":"Дүүрэнжаргал","phone":"88129192"},"relations":[],"meta":{}},"geometry":{"type":"Point","coordinates":[106.8067758,47.8682621]}},{"type":"Feature","id":"node/4556370094","properties":{"type":"node","id":4556370094,"tags":{"amenity":"pharmacy","name":"цаа-од","operator":"Нямдулам","phone":"95119402"},"relations":[],"meta":{}},"geometry":{"type":"Point","coordinates":[106.8305089,47.8715864]}},{"type":"Feature","id":"node/4562367289","properties":{"type":"node","id":4562367289,"tags":{"amenity":"pharmacy","name":"Түмэн тун","name:mn":"Түмэн тун","operator":"Сарангэрэл","phone":"99268652"},"relations":[],"meta":{}},"geometry":{"type":"Point","coordinates":[106.8333803,47.8735224]}},{"type":"Feature","id":"node/4575978397","properties":{"type":"node","id":4575978397,"tags":{"amenity":"pharmacy","name":"Эмийн сан","name:mn":"Эмийн сан"},"relations":[],"meta":{}},"geometry":{"type":"Point","coordinates":[106.9001439,47.8999531]}},{"type":"Feature","id":"node/4575978493","properties":{"type":"node","id":4575978493,"tags":{"amenity":"pharmacy","name":"Эмийн сан","phone":"96023876"},"relations":[],"meta":{}},"geometry":{"type":"Point","coordinates":[106.8255972,47.8701399]}},{"type":"Feature","id":"node/4576016192","properties":{"type":"node","id":4576016192,"tags":{"amenity":"pharmacy","name":"Эмийн сан 24 цаг","opening_hours":"24/7"},"relations":[],"meta":{}},"geometry":{"type":"Point","coordinates":[106.7590688,47.8563225]}},{"type":"Feature","id":"node/4721925192","properties":{"type":"node","id":4721925192,"tags":{"addr:housenumber":"32-4","addr:street":"Сонсголонгийн зам","amenity":"pharmacy","name":"\"Энхийн шүүдэр\" эмийн үйлдвэр","name:en":"\"Enkhiin shuuder\" pharmaceutical industry"},"relations":[],"meta":{}},"geometry":{"type":"Point","coordinates":[106.7900984,47.8850299]}},{"type":"Feature","id":"node/4873076721","properties":{"type":"node","id":4873076721,"tags":{"amenity":"pharmacy","name":"Эмийн сан","name:en":"Pharmacy","name:mn":"Эмийн сан"},"relations":[],"meta":{}},"geometry":{"type":"Point","coordinates":[106.918166,47.9003903]}},{"type":"Feature","id":"node/5043953502","properties":{"type":"node","id":5043953502,"tags":{"amenity":"pharmacy","drive_through":"no","name":"Эмийн Сан"},"relations":[],"meta":{}},"geometry":{"type":"Point","coordinates":[106.7864107,47.8458861]}},{"type":"Feature","id":"node/5145087322","properties":{"type":"node","id":5145087322,"tags":{"amenity":"pharmacy","email":"ch.sodhuu@gmail.com","healthcare":"pharmacy","name":"Арвижих бүл","name:en":"Arvijikh bul","opening_hours":"24/7","phone":"88705256"},"relations":[],"meta":{}},"geometry":{"type":"Point","coordinates":[106.9114096,47.9179321]}},{"type":"Feature","id":"node/5187839815","properties":{"type":"node","id":5187839815,"tags":{"amenity":"pharmacy"},"relations":[],"meta":{}},"geometry":{"type":"Point","coordinates":[106.9428921,47.9172253]}},{"type":"Feature","id":"node/5254186808","properties":{"type":"node","id":5254186808,"tags":{"amenity":"pharmacy","healthcare":"pharmacy","name":"Хүрмэн"},"relations":[],"meta":{}},"geometry":{"type":"Point","coordinates":[106.9381333,47.9049344]}},{"type":"Feature","id":"node/5398404923","properties":{"type":"node","id":5398404923,"tags":{"amenity":"pharmacy","name":"Эмийн сан","name:en":"pharmacy","opening_hours":"Mo-Su 09:00-18:00"},"relations":[],"meta":{}},"geometry":{"type":"Point","coordinates":[106.9535769,47.9123572]}},{"type":"Feature","id":"node/5467351225","properties":{"type":"node","id":5467351225,"tags":{"addr:housenumber":"Twin tower 2","addr:street":"Сөүлийн гудамж","amenity":"pharmacy","healthcare":"pharmacy","name":"4Life Трансфер Фактор","name:en":"4Life Transfer factor","opening_hours":"Mo-Fr 09:00-18:00","operator":"4Life ILT","phone":"+976 88119163","website":"http://www.transferfactor2005.wordpress.com"},"relations":[],"meta":{}},"geometry":{"type":"Point","coordinates":[106.9103,47.9144662]}},{"type":"Feature","id":"node/5821689553","properties":{"type":"node","id":5821689553,"tags":{"amenity":"pharmacy","name":"Мөнх фарм"},"relations":[],"meta":{}},"geometry":{"type":"Point","coordinates":[106.8828362,47.9852267]}},{"type":"Feature","id":"node/5821805654","properties":{"type":"node","id":5821805654,"tags":{"amenity":"pharmacy","name":"Ач фарм"},"relations":[],"meta":{}},"geometry":{"type":"Point","coordinates":[106.9166981,47.9691696]}},{"type":"Feature","id":"node/5821805655","properties":{"type":"node","id":5821805655,"tags":{"amenity":"pharmacy","name":"Хаш"},"relations":[],"meta":{}},"geometry":{"type":"Point","coordinates":[106.8971399,47.9615877]}},{"type":"Feature","id":"node/5821805657","properties":{"type":"node","id":5821805657,"tags":{"amenity":"pharmacy","name":"Мөнх фарм"},"relations":[],"meta":{}},"geometry":{"type":"Point","coordinates":[106.8974981,47.9479996]}},{"type":"Feature","id":"node/5821805658","properties":{"type":"node","id":5821805658,"tags":{"amenity":"pharmacy","name":"Хишиг"},"relations":[],"meta":{}},"geometry":{"type":"Point","coordinates":[106.8975921,47.9480485]}},{"type":"Feature","id":"node/5821805754","properties":{"type":"node","id":5821805754,"tags":{"amenity":"pharmacy","name":"Эрх шар"},"relations":[],"meta":{}},"geometry":{"type":"Point","coordinates":[106.9137587,47.9504429]}},{"type":"Feature","id":"node/5821805755","properties":{"type":"node","id":5821805755,"tags":{"amenity":"pharmacy","name":"Хилчин 2"},"relations":[],"meta":{}},"geometry":{"type":"Point","coordinates":[106.9033653,47.9466471]}},{"type":"Feature","id":"node/5821814853","properties":{"type":"node","id":5821814853,"tags":{"amenity":"pharmacy","name":"Энхжин фарм"},"relations":[],"meta":{}},"geometry":{"type":"Point","coordinates":[106.9035586,47.9724043]}},{"type":"Feature","id":"node/5821815053","properties":{"type":"node","id":5821815053,"tags":{"amenity":"pharmacy","name":"Гладиолус фарм"},"relations":[],"meta":{}},"geometry":{"type":"Point","coordinates":[106.9039879,47.9717175]}},{"type":"Feature","id":"node/5821815054","properties":{"type":"node","id":5821815054,"tags":{"amenity":"pharmacy","name":"Ачлал"},"relations":[],"meta":{}},"geometry":{"type":"Point","coordinates":[106.9150944,47.9545767]}},{"type":"Feature","id":"node/5821815153","properties":{"type":"node","id":5821815153,"tags":{"amenity":"pharmacy","name":"Ариун монгол"},"relations":[],"meta":{}},"geometry":{"type":"Point","coordinates":[106.9172066,47.968802]}},{"type":"Feature","id":"node/5821824854","properties":{"type":"node","id":5821824854,"tags":{"amenity":"pharmacy","name":"Ану"},"relations":[],"meta":{}},"geometry":{"type":"Point","coordinates":[106.8976341,47.9479852]}},{"type":"Feature","id":"node/5821824855","properties":{"type":"node","id":5821824855,"tags":{"amenity":"pharmacy","name":"Ннннн"},"relations":[],"meta":{}},"geometry":{"type":"Point","coordinates":[106.8885508,47.9523312]}},{"type":"Feature","id":"node/5821860454","properties":{"type":"node","id":5821860454,"tags":{"amenity":"pharmacy","name":"Монос дэнж 1000"},"relations":[],"meta":{}},"geometry":{"type":"Point","coordinates":[106.9035962,47.9427838]}},{"type":"Feature","id":"node/5821860455","properties":{"type":"node","id":5821860455,"tags":{"amenity":"pharmacy","name":"Ягаан мүгз"},"relations":[],"meta":{}},"geometry":{"type":"Point","coordinates":[106.903403,47.9432426]}},{"type":"Feature","id":"node/5821860456","properties":{"type":"node","id":5821860456,"tags":{"amenity":"pharmacy","name":"Гансөд"},"relations":[],"meta":{}},"geometry":{"type":"Point","coordinates":[106.9030136,47.9416327]}},{"type":"Feature","id":"node/5834726686","properties":{"type":"node","id":5834726686,"tags":{"amenity":"pharmacy","name":"Их-Төгөл ХХК","name:en":"Эмийн сан","name:mn":"Их Төгөл ХХК","opening_hours":"Mo-Su 09:00-21:00"},"relations":[],"meta":{}},"geometry":{"type":"Point","coordinates":[106.8944486,47.9112225]}},{"type":"Feature","id":"node/5834731886","properties":{"type":"node","id":5834731886,"tags":{"amenity":"pharmacy","name":"Их-Төгөл","name:en":"Фарм маркет","name:mn":"Их Төгөл ХХК","phone":"70181800","website":"http://www.ikhtugul.mn"},"relations":[],"meta":{}},"geometry":{"type":"Point","coordinates":[106.863069,47.9140298]}},{"type":"Feature","id":"node/5834731887","properties":{"type":"node","id":5834731887,"tags":{"amenity":"pharmacy","name":"Их-Төгөл ХХК","name:en":"Эм Ханган Нийлүүлэх Төв","name:mn":"Их Төгөл ХХК","opening_hours":"Mo-Su 09:00-19:00","phone":"70113450","website":"http://www.ikhtugul.mn"},"relations":[],"meta":{}},"geometry":{"type":"Point","coordinates":[106.9023024,47.9189782]}},{"type":"Feature","id":"node/5834731888","properties":{"type":"node","id":5834731888,"tags":{"amenity":"pharmacy","name":"Их-Төгөл ХХК","name:en":"Pharm","name:mn":"Их Төгөл ХХК"},"relations":[],"meta":{}},"geometry":{"type":"Point","coordinates":[106.919335,47.9002274]}},{"type":"Feature","id":"node/6066312088","properties":{"type":"node","id":6066312088,"tags":{"amenity":"pharmacy","name":"Монос","name:en":"monos"},"relations":[],"meta":{}},"geometry":{"type":"Point","coordinates":[108.3711515,47.7828428]}},{"type":"Feature","id":"node/6099835185","properties":{"type":"node","id":6099835185,"tags":{"addr:street":"bayanzurkh duureg","amenity":"pharmacy","name":"хүдэр баян эмийн сан","name:en":"khuderbayan llc","opening_hours":"Mo-Sa 08:00-21:00","phone":"80273508"},"relations":[],"meta":{}},"geometry":{"type":"Point","coordinates":[106.9664256,47.9178707]}},{"type":"Feature","id":"node/6099835186","properties":{"type":"node","id":6099835186,"tags":{"amenity":"pharmacy","name":"Баяр энх эмийн сан","name:en":"Bayar enkh pharmacy","opening_hours":"08:00-23:00","phone":"88 815493"},"relations":[],"meta":{}},"geometry":{"type":"Point","coordinates":[106.8666,47.9198527]}},{"type":"Feature","id":"node/6099835585","properties":{"type":"node","id":6099835585,"tags":{"amenity":"pharmacy","name":"ХүдэрБаян ЭХНБ","name:en":"Khuderbayan LLC","phone":"98982147"},"relations":[],"meta":{}},"geometry":{"type":"Point","coordinates":[106.9757691,47.9261014]}},{"type":"Feature","id":"node/6223119787","properties":{"type":"node","id":6223119787,"tags":{"amenity":"pharmacy","name":"Оргил фарм Хаппи Таун","name:en":"Orgil Pharma Happy Town"},"relations":[],"meta":{}},"geometry":{"type":"Point","coordinates":[106.9608007,47.9197728]}},{"type":"Feature","id":"node/6223119788","properties":{"type":"node","id":6223119788,"tags":{"amenity":"pharmacy","name":"Оргил Фарм ЭХНБ","name:en":"Orgil Pharma"},"relations":[],"meta":{}},"geometry":{"type":"Point","coordinates":[106.9018531,47.9189342]}},{"type":"Feature","id":"node/6223121986","properties":{"type":"node","id":6223121986,"tags":{"amenity":"pharmacy","healthcare":"pharmacy","name":"Оргил Фарм 13","name:en":"Orgil Pharma 13"},"relations":[],"meta":{}},"geometry":{"type":"Point","coordinates":[106.9315136,47.9157165]}},{"type":"Feature","id":"node/6584231086","properties":{"type":"node","id":6584231086,"tags":{"amenity":"pharmacy","name":"Света эмийн сан","name:en":"Sveta pharmacy"},"relations":[],"meta":{}},"geometry":{"type":"Point","coordinates":[107.2536556,47.7732448]}},{"type":"Feature","id":"node/6584233285","properties":{"type":"node","id":6584233285,"tags":{"amenity":"pharmacy","name":"Эмийн бамбай","name:en":"Emiin bambai"},"relations":[],"meta":{}},"geometry":{"type":"Point","coordinates":[107.2543786,47.7712818]}},{"type":"Feature","id":"node/6584282087","properties":{"type":"node","id":6584282087,"tags":{"amenity":"pharmacy","name":"Лидэр оюу","name:en":"Lider oyu"},"relations":[],"meta":{}},"geometry":{"type":"Point","coordinates":[107.2563458,47.7728646]}},{"type":"Feature","id":"node/6584282088","properties":{"type":"node","id":6584282088,"tags":{"amenity":"pharmacy","name":"Согоон бор","name:en":"Sogoon bor"},"relations":[],"meta":{}},"geometry":{"type":"Point","coordinates":[107.2549167,47.7712135]}},{"type":"Feature","id":"node/6584282090","properties":{"type":"node","id":6584282090,"tags":{"amenity":"pharmacy","name":"Энх-Үйлс","name:en":"Enkh uils"},"relations":[],"meta":{}},"geometry":{"type":"Point","coordinates":[106.9841022,47.918702]}},{"type":"Feature","id":"node/6584282091","properties":{"type":"node","id":6584282091,"tags":{"amenity":"pharmacy","name":"Ганба трейд","name:en":"Ganba trade"},"relations":[],"meta":{}},"geometry":{"type":"Point","coordinates":[106.9825359,47.9182708]}},{"type":"Feature","id":"node/6584282092","properties":{"type":"node","id":6584282092,"tags":{"amenity":"pharmacy","name":"Алтан могой","name:en":"Altan mogoi"},"relations":[],"meta":{}},"geometry":{"type":"Point","coordinates":[106.9702878,47.924903]}},{"type":"Feature","id":"node/6584294887","properties":{"type":"node","id":6584294887,"tags":{"amenity":"pharmacy","name":"Ариун тун"},"relations":[],"meta":{}},"geometry":{"type":"Point","coordinates":[107.2536935,47.7758309]}},{"type":"Feature","id":"node/6584294888","properties":{"type":"node","id":6584294888,"tags":{"amenity":"pharmacy","name":"New"},"relations":[],"meta":{}},"geometry":{"type":"Point","coordinates":[106.9755832,47.9167255]}},{"type":"Feature","id":"node/6584300586","properties":{"type":"node","id":6584300586,"tags":{"amenity":"pharmacy","name":"Энэрэхзаяа","name:en":"Enerekhzaya"},"relations":[],"meta":{}},"geometry":{"type":"Point","coordinates":[106.9850194,47.9202766]}},{"type":"Feature","id":"node/6584307386","properties":{"type":"node","id":6584307386,"tags":{"amenity":"pharmacy","name":"Бан Асыл"},"relations":[],"meta":{}},"geometry":{"type":"Point","coordinates":[107.2665271,47.7652411]}},{"type":"Feature","id":"node/6584313286","properties":{"type":"node","id":6584313286,"tags":{"amenity":"pharmacy","name":"Зууны дэвшил","name:en":"Zuunii devshil"},"relations":[],"meta":{}},"geometry":{"type":"Point","coordinates":[106.9636083,47.9197581]}},{"type":"Feature","id":"node/6584313287","properties":{"type":"node","id":6584313287,"tags":{"amenity":"pharmacy","name":"Их шүүдэргэнэ","name:en":"Ikh shuudergene"},"relations":[],"meta":{}},"geometry":{"type":"Point","coordinates":[106.9584509,47.9175949]}},{"type":"Feature","id":"node/6584313387","properties":{"type":"node","id":6584313387,"tags":{"amenity":"pharmacy","name":"Мөнхийн хишиг","name:en":"Munkhiin khishig"},"relations":[],"meta":{}},"geometry":{"type":"Point","coordinates":[106.9575133,47.9200866]}},{"type":"Feature","id":"node/6584330485","properties":{"type":"node","id":6584330485,"tags":{"amenity":"pharmacy","name":"Грийн хоме","name:en":"Green home"},"relations":[],"meta":{}},"geometry":{"type":"Point","coordinates":[106.9688989,47.9200084]}},{"type":"Feature","id":"node/6584382585","properties":{"type":"node","id":6584382585,"tags":{"amenity":"pharmacy","name":"Ганба","name:en":"Ganba"},"relations":[],"meta":{}},"geometry":{"type":"Point","coordinates":[106.9521324,47.9172082]}},{"type":"Feature","id":"node/6584382685","properties":{"type":"node","id":6584382685,"tags":{"amenity":"pharmacy","name":"Монгол буйлс","name:en":"Mongol buils"},"relations":[],"meta":{}},"geometry":{"type":"Point","coordinates":[106.9497605,47.9182723]}},{"type":"Feature","id":"node/6584382686","properties":{"type":"node","id":6584382686,"tags":{"amenity":"pharmacy","name":"Алтан мэлмий","name:en":"Altan melmii"},"relations":[],"meta":{}},"geometry":{"type":"Point","coordinates":[106.9487646,47.9184049]}},{"type":"Feature","id":"node/6584382687","properties":{"type":"node","id":6584382687,"tags":{"amenity":"pharmacy","name":"Сүвэн уул","name:en":"Suven uul"},"relations":[],"meta":{}},"geometry":{"type":"Point","coordinates":[106.9457925,47.9203575]}},{"type":"Feature","id":"node/6584382688","properties":{"type":"node","id":6584382688,"tags":{"amenity":"pharmacy","name":"Бага артын энгэр","name:en":"Baga artiin enger"},"relations":[],"meta":{}},"geometry":{"type":"Point","coordinates":[106.953584,47.9123486]}},{"type":"Feature","id":"node/6584382689","properties":{"type":"node","id":6584382689,"tags":{"amenity":"pharmacy","name":"Эвент я","name:en":"Event МС"},"relations":[],"meta":{}},"geometry":{"type":"Point","coordinates":[106.941384,47.9106555]}},{"type":"Feature","id":"node/6584382690","properties":{"type":"node","id":6584382690,"tags":{"amenity":"pharmacy","name":"Заан уул","name:en":"Zaan uul"},"relations":[],"meta":{}},"geometry":{"type":"Point","coordinates":[106.9392377,47.9128794]}},{"type":"Feature","id":"node/6584382785","properties":{"type":"node","id":6584382785,"tags":{"amenity":"pharmacy","name":"Оригмаг","name:en":"Origmag"},"relations":[],"meta":{}},"geometry":{"type":"Point","coordinates":[106.9450855,47.9199848]}},{"type":"Feature","id":"node/6584382787","properties":{"type":"node","id":6584382787,"tags":{"amenity":"pharmacy","name":"Роза","name:en":"Roza"},"relations":[],"meta":{}},"geometry":{"type":"Point","coordinates":[106.9468959,47.9200206]}},{"type":"Feature","id":"node/6584382788","properties":{"type":"node","id":6584382788,"tags":{"amenity":"pharmacy","name":"Нандийпэл","name:en":"Nandiipel"},"relations":[],"meta":{}},"geometry":{"type":"Point","coordinates":[106.9543004,47.9123297]}},{"type":"Feature","id":"node/6584382790","properties":{"type":"node","id":6584382790,"tags":{"amenity":"pharmacy","name":"Оксман Номин-Эрдэнэ","name:en":"Oxman"},"relations":[],"meta":{}},"geometry":{"type":"Point","coordinates":[106.9440553,47.9125018]}},{"type":"Feature","id":"node/6584382791","properties":{"type":"node","id":6584382791,"tags":{"amenity":"pharmacy","name":"Шиншила","name:en":"Shinshila"},"relations":[],"meta":{}},"geometry":{"type":"Point","coordinates":[106.94472,47.9128494]}},{"type":"Feature","id":"node/6584382885","properties":{"type":"node","id":6584382885,"tags":{"amenity":"pharmacy","name":"Си жи эс","name:en":"CJS"},"relations":[],"meta":{}},"geometry":{"type":"Point","coordinates":[106.9450231,47.9199701]}},{"type":"Feature","id":"node/6584383185","properties":{"type":"node","id":6584383185,"tags":{"amenity":"pharmacy","name":"Өрнөх тэнгэр","name:en":"Urnuh tenger"},"relations":[],"meta":{}},"geometry":{"type":"Point","coordinates":[106.9476061,47.9159931]}},{"type":"Feature","id":"node/6584383186","properties":{"type":"node","id":6584383186,"tags":{"amenity":"pharmacy","name":"Панда","name:en":"Panda"},"relations":[],"meta":{}},"geometry":{"type":"Point","coordinates":[106.9431094,47.9062185]}},{"type":"Feature","id":"node/6584383187","properties":{"type":"node","id":6584383187,"tags":{"amenity":"pharmacy","name":"Мөнхийн жороо","name:en":"Munkhiin joroo"},"relations":[],"meta":{}},"geometry":{"type":"Point","coordinates":[106.9419962,47.9090407]}},{"type":"Feature","id":"node/6584383285","properties":{"type":"node","id":6584383285,"tags":{"amenity":"pharmacy","name":"Тулга ватт","name:en":"Tulga vatt"},"relations":[],"meta":{}},"geometry":{"type":"Point","coordinates":[106.9548795,47.9099594]}},{"type":"Feature","id":"node/6584383585","properties":{"type":"node","id":6584383585,"tags":{"amenity":"pharmacy","name":"Өлзий дөл","name:en":"Ulzii dul"},"relations":[],"meta":{}},"geometry":{"type":"Point","coordinates":[106.9412477,47.9091957]}},{"type":"Feature","id":"node/6584383586","properties":{"type":"node","id":6584383586,"tags":{"amenity":"pharmacy","name":"Ихэр тана","name:en":"Ikher tana"},"relations":[],"meta":{}},"geometry":{"type":"Point","coordinates":[106.9428533,47.9111175]}},{"type":"Feature","id":"node/6584383685","properties":{"type":"node","id":6584383685,"tags":{"amenity":"pharmacy","name":"Их бөөрөг /3үр эко/","name:en":"3ur eco"},"relations":[],"meta":{}},"geometry":{"type":"Point","coordinates":[106.9435107,47.9132985]}},{"type":"Feature","id":"node/7210831003","properties":{"type":"node","id":7210831003,"tags":{"amenity":"pharmacy","description":"24 цагын эмийн сан","dispensing":"yes","ele":"1","healthcare":"pharmacy","name":"Хос хун","opening_hours":"24/7"},"relations":[],"meta":{}},"geometry":{"type":"Point","coordinates":[106.7895458,47.8450579]}},{"type":"Feature","id":"node/7252691385","properties":{"type":"node","id":7252691385,"tags":{"amenity":"pharmacy","name":"Эмийн сан","name:en":"pharmacy"},"relations":[],"meta":{}},"geometry":{"type":"Point","coordinates":[106.8835954,47.9028359]}},{"type":"Feature","id":"node/7465747885","properties":{"type":"node","id":7465747885,"tags":{"addr:street":"Tuul gol gudamj","amenity":"pharmacy","name":"Эмийн сан","opening_hours":"Mo-Su 09:00-18:00"},"relations":[],"meta":{}},"geometry":{"type":"Point","coordinates":[106.8966259,47.8902234]}},{"type":"Feature","id":"node/7465748085","properties":{"type":"node","id":7465748085,"tags":{"addr:street":"Tuul gol gudamj","amenity":"pharmacy","name":"Эмийн сан"},"relations":[],"meta":{}},"geometry":{"type":"Point","coordinates":[106.896389,47.8915831]}},{"type":"Feature","id":"node/7946438485","properties":{"type":"node","id":7946438485,"tags":{"amenity":"pharmacy","name":"Эмийн сан","name:en":"pharmacy"},"relations":[],"meta":{}},"geometry":{"type":"Point","coordinates":[106.8767122,47.9243904]}},{"type":"Feature","id":"node/8042028303","properties":{"type":"node","id":8042028303,"tags":{"amenity":"pharmacy","name":"Монос эмийн сан"},"relations":[],"meta":{}},"geometry":{"type":"Point","coordinates":[107.0032574,47.9109365]}},{"type":"Feature","id":"node/8046888274","properties":{"type":"node","id":8046888274,"tags":{"addr:city":"ulaanbaatar","amenity":"pharmacy","healthcare":"pharmacy","name":"Эмийн сан","name:en":"24 pharmacy","opening_hours":"09:00-20:00"},"relations":[],"meta":{}},"geometry":{"type":"Point","coordinates":[106.9517908,47.9178593]}},{"type":"Feature","id":"node/8060765990","properties":{"type":"node","id":8060765990,"tags":{"amenity":"pharmacy","dispensing":"yes","healthcare":"pharmacy","name":"Эмийн сан"},"relations":[],"meta":{}},"geometry":{"type":"Point","coordinates":[106.9598452,47.9203981]}},{"type":"Feature","id":"node/8091022863","properties":{"type":"node","id":8091022863,"tags":{"amenity":"pharmacy","healthcare":"pharmacy"},"relations":[],"meta":{}},"geometry":{"type":"Point","coordinates":[106.8583421,47.9211442]}},{"type":"Feature","id":"node/8097106533","properties":{"type":"node","id":8097106533,"tags":{"amenity":"pharmacy","healthcare":"pharmacy"},"relations":[],"meta":{}},"geometry":{"type":"Point","coordinates":[106.8869473,47.9058193]}},{"type":"Feature","id":"node/8145063437","properties":{"type":"node","id":8145063437,"tags":{"amenity":"pharmacy"},"relations":[],"meta":{}},"geometry":{"type":"Point","coordinates":[106.8196379,47.9107232]}},{"type":"Feature","id":"node/8253470421","properties":{"type":"node","id":8253470421,"tags":{"amenity":"pharmacy","name":"Хүрмэн эмийн сан","name:en":"Khurmen"},"relations":[],"meta":{}},"geometry":{"type":"Point","coordinates":[106.8311707,47.9115075]}},{"type":"Feature","id":"node/8267264695","properties":{"type":"node","id":8267264695,"tags":{"amenity":"pharmacy","name":"мөнхийн тус","operator":"company"},"relations":[],"meta":{}},"geometry":{"type":"Point","coordinates":[106.9476126,47.9216096]}}]}}